FENGYUN 1C DEB          
1 36273U 99025DXA 17337.10522098  .00000075  00000-0  63493-4 0  9995
2 36273  99.6150 302.1782 0099701 204.1288 155.5194 14.13527782507751
